{
  "type": "FeatureCollection",
  "features": [
    {
      "type": "Feature",
      "properties": {
        "norad_id": 24946,
        "name": "IRIDIUM 33",
        "group": "iridium-33-debris",
        "lat": 8.733652177738573,
        "lon": 69.2301349230034,
        "alt_km": 781.5242869635895,
        "timestamp": "2025-12-11T15:53:39.928077+00:00",
        "meta_object_name": "IRIDIUM 33",
        "meta_object_id": "1997-051C",
        "meta_epoch": "2025-12-11T07:29:10.501440",
        "meta_mean_motion": 14.35036156,
        "meta_eccentricity": 0.00068671,
        "meta_inclination": 86.3869,
        "meta_ra_of_asc_node": 68.821,
        "meta_arg_of_pericenter": 205.5065,
        "meta_mean_anomaly": 154.5793,
        "meta_ephemeris_type": 0,
        "meta_classification_type": "U",
        "meta_norad_cat_id": 24946,
        "meta_element_set_no": 999,
        "meta_rev_at_epoch": 47814,
        "meta_bstar": 0.00020296922,
        "meta_mean_motion_dot": 5.98e-06,
        "meta_mean_motion_ddot": 0,
        "tle_line1": "1 24946U 97051C   25345.31192710  .00000598  00000+0  20297-3 0  9994",
        "tle_line2": "2 24946  86.3869  68.8210 0006867 205.5065 154.5793 14.35036156478144"
      },
      "geometry": {
        "type": "Point",
        "coordinates": [
          69.2301349230034,
          8.733652177738573
        ]
      }
    },
    {
      "type": "Feature",
      "properties": {
        "norad_id": 33773,
        "name": "IRIDIUM 33 DEB",
        "group": "iridium-33-debris",
        "lat": -65.71088919091304,
        "lon": 53.03008440482432,
        "alt_km": 762.260368626984,
        "timestamp": "2025-12-11T15:53:39.928118+00:00",
        "meta_object_name": "IRIDIUM 33 DEB",
        "meta_object_id": "1997-051L",
        "meta_epoch": "2025-12-11T06:12:59.400576",
        "meta_mean_motion": 14.4325257,
        "meta_eccentricity": 0.00123381,
        "meta_inclination": 86.4013,
        "meta_ra_of_asc_node": 61.217,
        "meta_arg_of_pericenter": 150.7612,
        "meta_mean_anomaly": 209.4282,
        "meta_ephemeris_type": 0,
        "meta_classification_type": "U",
        "meta_norad_cat_id": 33773,
        "meta_element_set_no": 999,
        "meta_rev_at_epoch": 88326,
        "meta_bstar": 0.00050978244,
        "meta_mean_motion_dot": 1.736e-05,
        "meta_mean_motion_ddot": 0,
        "tle_line1": "1 33773U 97051L   25345.25902084  .00001736  00000+0  50978-3 0  9992",
        "tle_line2": "2 33773  86.4013  61.2170 0012338 150.7612 209.4282 14.43252570883260"
      },
      "geometry": {
        "type": "Point",
        "coordinates": [
          53.03008440482432,
          -65.71088919091304
        ]
      }
    },
    {
      "type": "Feature",
      "properties": {
        "norad_id": 33775,
        "name": "IRIDIUM 33 DEB",
        "group": "iridium-33-debris",
        "lat": 24.16762916482728,
        "lon": 51.64888805485505,
        "alt_km": 760.0700024717089,
        "timestamp": "2025-12-11T15:53:39.928133+00:00",
        "meta_object_name": "IRIDIUM 33 DEB",
        "meta_object_id": "1997-051N",
        "meta_epoch": "2025-12-11T06:04:52.921920",
        "meta_mean_motion": 14.41464374,
        "meta_eccentricity": 0.00141407,
        "meta_inclination": 86.3638,
        "meta_ra_of_asc_node": 50.1882,
        "meta_arg_of_pericenter": 159.1228,
        "meta_mean_anomaly": 264.8918,
        "meta_ephemeris_type": 0,
        "meta_classification_type": "U",
        "meta_norad_cat_id": 33775,
        "meta_element_set_no": 999,
        "meta_rev_at_epoch": 88119,
        "meta_bstar": 0.000540193,
        "meta_mean_motion_dot": 1.773e-05,
        "meta_mean_motion_ddot": 0,
        "tle_line1": "1 33775U 97051N   25345.25339030  .00001773  00000+0  54019-3 0  9990",
        "tle_line2": "2 33775  86.3638  50.1882 0014140 159.1228 264.8918 14.41464374881196"
      },
      "geometry": {
        "type": "Point",
        "coordinates": [
          51.64888805485505,
          24.16762916482728
        ]
      }
    },
    {
      "type": "Feature",
      "properties": {
        "norad_id": 33776,
        "name": "IRIDIUM 33 DEB",
        "group": "iridium-33-debris",
        "lat": -85.1984387921102,
        "lon": -50.29559792850697,
        "alt_km": 768.7963442149512,
        "timestamp": "2025-12-11T15:53:39.928147+00:00",
        "meta_object_name": "IRIDIUM 33 DEB",
        "meta_object_id": "1997-051P",
        "meta_epoch": "2025-12-11T06:33:14.323680",
        "meta_mean_motion": 14.38231867,
        "meta_eccentricity": 0.00141716,
        "meta_inclination": 86.4038,
        "meta_ra_of_asc_node": 81.3918,
        "meta_arg_of_pericenter": 195.2769,
        "meta_mean_anomaly": 217.5982,
        "meta_ephemeris_type": 0,
        "meta_classification_type": "U",
        "meta_norad_cat_id": 33776,
        "meta_element_set_no": 999,
        "meta_rev_at_epoch": 88061,
        "meta_bstar": 0.0005174173,
        "meta_mean_motion_dot": 1.592e-05,
        "meta_mean_motion_ddot": 0,
        "tle_line1": "1 33776U 97051P   25345.27308245  .00001592  00000+0  51742-3 0  9996",
        "tle_line2": "2 33776  86.4038  81.3918 0014171 195.2769 217.5982 14.38231867880610"
      },
      "geometry": {
        "type": "Point",
        "coordinates": [
          -50.29559792850697,
          -85.1984387921102
        ]
      }
    },
    {
      "type": "Feature",
      "properties": {
        "norad_id": 33777,
        "name": "IRIDIUM 33 DEB",
        "group": "iridium-33-debris",
        "lat": -12.994728520846932,
        "lon": 34.8345083142523,
        "alt_km": 712.1813455051715,
        "timestamp": "2025-12-11T15:53:39.928160+00:00",
        "meta_object_name": "IRIDIUM 33 DEB",
        "meta_object_id": "1997-051Q",
        "meta_epoch": "2025-12-11T04:24:18.065952",
        "meta_mean_motion": 14.55595173,
        "meta_eccentricity": 0.00051019,
        "meta_inclination": 86.3785,
        "meta_ra_of_asc_node": 35.8801,
        "meta_arg_of_pericenter": 256.1395,
        "meta_mean_anomaly": 103.9245,
        "meta_ephemeris_type": 0,
        "meta_classification_type": "U",
        "meta_norad_cat_id": 33777,
        "meta_element_set_no": 999,
        "meta_rev_at_epoch": 88511,
        "meta_bstar": 0.001355914,
        "meta_mean_motion_dot": 5.934e-05,
        "meta_mean_motion_ddot": 0,
        "tle_line1": "1 33777U 97051Q   25345.18354243  .00005934  00000+0  13559-2 0  9993",
        "tle_line2": "2 33777  86.3785  35.8801 0005101 256.1395 103.9245 14.55595173885111"
      },
      "geometry": {
        "type": "Point",
        "coordinates": [
          34.8345083142523,
          -12.994728520846932
        ]
      }
    },
    {
      "type": "Feature",
      "properties": {
        "norad_id": 33850,
        "name": "IRIDIUM 33 DEB",
        "group": "iridium-33-debris",
        "lat": 2.5467524907175325,
        "lon": 30.806230049434358,
        "alt_km": 762.3020106831955,
        "timestamp": "2025-12-11T15:53:39.928171+00:00",
        "meta_object_name": "IRIDIUM 33 DEB",
        "meta_object_id": "1997-051T",
        "meta_epoch": "2025-12-11T04:30:10.253952",
        "meta_mean_motion": 14.42141315,
        "meta_eccentricity": 0.00120495,
        "meta_inclination": 86.3419,
        "meta_ra_of_asc_node": 30.8472,
        "meta_arg_of_pericenter": 165.8293,
        "meta_mean_anomaly": 254.2129,
        "meta_ephemeris_type": 0,
        "meta_classification_type": "U",
        "meta_norad_cat_id": 33850,
        "meta_element_set_no": 999,
        "meta_rev_at_epoch": 88130,
        "meta_bstar": 0.00045595561,
        "meta_mean_motion_dot": 1.52e-05,
        "meta_mean_motion_ddot": 0,
        "tle_line1": "1 33850U 97051T   25345.18761868  .00001520  00000+0  45596-3 0  9994",
        "tle_line2": "2 33850  86.3419  30.8472 0012049 165.8293 254.2129 14.42141315881307"
      },
      "geometry": {
        "type": "Point",
        "coordinates": [
          30.806230049434358,
          2.5467524907175325
        ]
      }
    },
    {
      "type": "Feature",
      "properties": {
        "norad_id": 33853,
        "name": "IRIDIUM 33 DEB",
        "group": "iridium-33-debris",
        "lat": -10.983817230276726,
        "lon": 171.06186461948465,
        "alt_km": 799.4067508797607,
        "timestamp": "2025-12-11T15:53:39.928183+00:00",
        "meta_object_name": "IRIDIUM 33 DEB",
        "meta_object_id": "1997-051W",
        "meta_epoch": "2025-12-11T06:26:59.500608",
        "meta_mean_motion": 13.99049323,
        "meta_eccentricity": 0.02070294,
        "meta_inclination": 86.0001,
        "meta_ra_of_asc_node": 350.4562,
        "meta_arg_of_pericenter": 240.3711,
        "meta_mean_anomaly": 131.4664,
        "meta_ephemeris_type": 0,
        "meta_classification_type": "U",
        "meta_norad_cat_id": 33853,
        "meta_element_set_no": 999,
        "meta_rev_at_epoch": 85325,
        "meta_bstar": 0.0032315639,
        "meta_mean_motion_dot": 5.632e-05,
        "meta_mean_motion_ddot": 0,
        "tle_line1": "1 33853U 97051W   25345.26874422  .00005632  00000+0  32316-2 0  9990",
        "tle_line2": "2 33853  86.0001 350.4562 0207029 240.3711 131.4664 13.99049323853253"
      },
      "geometry": {
        "type": "Point",
        "coordinates": [
          171.06186461948465,
          -10.983817230276726
        ]
      }
    }
  ]
}